QIANFAN-89              
1 63175U 25046S   25352.28346807  .00000139  00000+0  19627-3 0  9994
2 63175  88.9767 319.4637 0018248 106.4394 253.8764 13.50977989 48153
QIANFAN-90              
1 63176U 25046T   25352.23814018  .00000110  00000+0  15185-3 0  9998
2 63176  88.9766 319.4408 0015210 104.4773 255.8067 13.50978355 48161
QIANFAN-91              
1 66033U 25233A   25352.26433160  .00000045  00000+0  35522-4 0  9994
2 66033  88.9952  61.5742 0017500  30.3163 329.9009 13.72626301  8736
QIANFAN-92              
1 66034U 25233B   25352.10012530 -.02086187  00000+0 -24850+1 0  9995
2 66034  88.9940  61.5865 0015874  27.4465 332.7533 13.71486025  8712
QIANFAN-93              
1 66035U 25233C   25352.12374388 -.02095390  00000+0 -25512+1 0  9992
2 66035  88.9953  61.5909 0017880  29.7926 330.4250 13.70155779  8711
QIANFAN-94              
1 66036U 25233D   25352.14550100 -.01890546  00000+0 -21741+1 0  9998
2 66036  88.9953  61.5758 0011740  34.8938 325.2994 13.73931182  8724
QIANFAN-95              
1 66037U 25233E   25352.13241232  .00000103  00000+0  46921-4 0  9991
2 66037  88.9958  61.4452 0014689  29.4113 330.7897 14.13522018  8799
QIANFAN-96              
1 66038U 25233F   25352.22395609  .00000046  00000+0  34861-4 0  9996
2 66038  88.9957  61.5869 0016696  31.8409 328.3761 13.74047855  8720
